GLOBALSTAR M063         
1 26081U 00008A   25365.28343500 -.00000079  00000+0  56755-4 0  9999
2 26081  51.9980 312.4879 0004852 337.5508 190.7402 11.86178534180966
GLOBALSTAR M062         
1 26082U 00008B   25365.08031139  .00000040  00000+0  98719-3 0  9992
2 26082  51.9829 236.7735 0006983 163.8117   0.8857 12.43480320521115
GLOBALSTAR M060         
1 26083U 00008C   25365.09446862 -.00000105  00000+0 -13864-3 0  9999
2 26083  52.0002 224.5988 0003413 145.0023  22.4141 12.17671608176359
GLOBALSTAR M064         
1 26084U 00008D   25365.27233921 -.00000057  00000+0  36721-3 0  9992
2 26084  52.0049  49.0213 0001709  90.9542 269.1486 11.88539940190539
GLOBALSTAR M065         
1 31571U 07020A   25351.59775860 -.00000114  00000+0 -59491-4 0  9998
2 31571  51.9915  28.0181 0009699 356.5964 173.4742 12.62015524856566
GLOBALSTAR M069         
1 31573U 07020C   25365.31373054 -.00000064  00000+0  26761-3 0  9990
2 31573  52.0058   7.2725 0001859 158.2001 304.1834 12.23465436858251
GLOBALSTAR M072         
1 31574U 07020D   25364.98256978 -.00000055  00000+0  39253-3 0  9998
2 31574  51.9897 188.0523 0001455  39.9255 127.7038 11.91654898854924
GLOBALSTAR M071         
1 31576U 07020F   25365.29018326 -.00000137  00000+0 -44827-3 0  9993
2 31576  52.0075  38.5132 0001159 144.0530 296.3406 12.18263387518968
